{"type":"FeatureCollection","metadata":{"title":"Karachi district orientation boundaries","source":"OpenStreetMap contributors","license":"ODbL 1.0","licenseUrl":"https://www.openstreetmap.org/copyright","snapshot":"2026-08-13","precision":"Administrative orientation only; not a cadastral or statistical-area measurement layer"},"features":[{"type":"Feature","id":"west","properties":{"id":"west","name":"West","osmName":"Orangi District","familiar":"Karachi West","color":"#E98F72","label":[66.994,24.994],"osmRelation":16347667,"source":"OpenStreetMap contributors","snapshot":"2026-08-13"},"geometry":{"type":"Polygon","coordinates":[[[67.0025215,24.9305765],[67.003093,24.931299],[67.0046494,24.932399],[67.0057023,24.9330839],[67.0072816,24.9342877],[67.0087464,24.9354707],[67.0098644,24.9359429],[67.0104173,24.9361764],[67.0122483,24.9371726],[67.014148,24.9396008],[67.0146287,24.9401612],[67.0157502,24.9408876],[67.0169404,24.9418215],[67.0179704,24.9428384],[67.0192521,24.943378],[67.0203278,24.9436685],[67.0206025,24.9443119],[67.0221131,24.946906],[67.0232346,24.9483172],[67.0243562,24.9497283],[67.0263932,24.9528411],[67.0283158,24.9553313],[67.0308564,24.9574687],[67.0343583,24.9607058],[67.0384553,24.9578422],[67.0408707,24.9559171],[67.0421291,24.9582387],[67.0426125,24.9591306],[67.0432533,24.9605208],[67.0435738,24.9614546],[67.0434593,24.9640484],[67.044146,24.9665798],[67.0441231,24.9703561],[67.0444893,24.9718915],[67.0454048,24.9736759],[67.0467323,24.9773068],[67.0469383,24.9792155],[67.046801,24.9803981],[67.0463188,24.9809532],[67.0453591,24.9820579],[67.0457253,24.9837383],[67.0483172,24.9865436],[67.0494387,24.9890124],[67.0503313,24.9912114],[67.0518648,24.9932029],[67.051636,24.9949662],[67.0512697,24.9972066],[67.0503313,24.9987832],[67.0476992,25.0000693],[67.045891,25.0003805],[67.0404436,25.0012309],[67.0407412,25.0021437],[67.0430529,25.0029112],[67.046038,25.004005],[67.0504687,25.0056285],[67.0547259,25.0059189],[67.064316,25.006396],[67.0809504,25.0073924],[67.0889384,25.0076206],[67.091536,25.0080163],[67.0916621,25.0080355],[67.1133143,25.0094044],[67.1147297,25.0096957],[67.1155968,25.0110027],[67.1187421,25.0116653],[67.1183726,25.0150254],[67.117663,25.0169129],[67.1151911,25.021455],[67.1103159,25.0294397],[67.1076037,25.0347734],[67.1048113,25.0369923],[67.1035982,25.0386305],[67.1013552,25.040331],[67.0962325,25.0449356],[67.0933715,25.0486059],[67.0914947,25.0503062],[67.0852691,25.0554069],[67.0813323,25.0598855],[67.0753585,25.0674737],[67.0703657,25.0790444],[67.0650786,25.0883312],[67.0603521,25.0882444],[67.0545614,25.0892809],[67.051586,25.091333],[67.0484503,25.0933229],[67.0408743,25.0926389],[67.0349234,25.0929705],[67.0261114,25.0975928],[67.0175509,25.1045791],[67.01541,25.1026039],[67.0008705,25.0926843],[66.9931032,25.0813651],[66.9825269,25.0657975],[66.9738006,25.0503659],[66.96508,25.0437519],[66.9495995,25.0351179],[66.94112,25.025035],[66.9400634,25.0242241],[66.9477124,25.0144299],[66.9522901,25.0082696],[66.9553342,25.0043492],[66.9566617,25.002109],[66.9613538,24.9936869],[66.9631848,24.9904921],[66.9659085,24.986343],[66.9681058,24.9833348],[66.9694104,24.9815713],[66.9695477,24.9807829],[66.9651532,24.9788949],[66.9580808,24.9748284],[66.9512601,24.9711352],[66.9557919,24.9654707],[66.9595685,24.9594739],[66.9493833,24.9547635],[66.9472432,24.9537505],[66.9423874,24.9515386],[66.9468383,24.9435295],[66.9468383,24.9428654],[66.9461745,24.9423051],[66.9478224,24.9397524],[66.9500197,24.9391297],[66.9534758,24.9394203],[66.955902,24.9403335],[66.9586028,24.9412881],[66.9598616,24.9412674],[66.9616469,24.9413089],[66.9640731,24.9415579],[66.9659499,24.9414127],[66.9678038,24.9415164],[66.968994,24.9413089],[66.969818,24.9411429],[66.9713286,24.9412466],[66.9734343,24.9400429],[66.9737319,24.9396901],[66.9732283,24.9386524],[66.9752196,24.937926],[66.9759749,24.9376562],[66.9775542,24.9359128],[66.9784468,24.9350411],[66.9799346,24.9327996],[66.979225,24.9321562],[66.9772795,24.931326],[66.9760894,24.9307656],[66.9758605,24.9301844],[66.9760436,24.9292712],[66.9754485,24.9285863],[66.9736632,24.9275692],[66.9714202,24.9254729],[66.9724044,24.9240199],[66.973709,24.9236463],[66.9768447,24.9234802],[66.977806,24.9231274],[66.9786757,24.922048],[66.9805526,24.9206158],[66.9812163,24.9196402],[66.9807357,24.918291],[66.9811705,24.9174399],[66.9822692,24.9163813],[66.9822005,24.9159038],[66.9919923,24.913116],[66.9928849,24.9174752],[66.992862,24.9190735],[66.9929536,24.9196755],[66.9928849,24.9208586],[66.9942124,24.9201944],[66.996341,24.9242212],[66.9972794,24.9257157],[67.0003007,24.9281856],[67.0023377,24.9303442],[67.0025215,24.9305765]]]}},{"type":"Feature","id":"central","properties":{"id":"central","name":"Central","osmName":"Nazimabad District","familiar":"Karachi Central","color":"#F3C76B","label":[67.044,24.952],"osmRelation":16349281,"source":"OpenStreetMap contributors","snapshot":"2026-08-13"},"geometry":{"type":"Polygon","coordinates":[[[67.0421291,24.9582387],[67.0408707,24.9559171],[67.0393395,24.953092],[67.0321297,24.9447288],[67.031448,24.9440268],[67.0280785,24.9405573],[67.0258583,24.9389385],[67.0191063,24.9340405],[67.0176872,24.933148],[67.0163597,24.9326914],[67.014872,24.9324631],[67.0135903,24.9321725],[67.0141167,24.9312178],[67.0154213,24.9310517],[67.0177788,24.9310933],[67.0184124,24.9302057],[67.0196255,24.9284415],[67.0203808,24.9279434],[67.0204952,24.9272169],[67.0201061,24.9268848],[67.0198086,24.9264282],[67.019717,24.9260961],[67.0193737,24.9258055],[67.0190533,24.9255564],[67.0188015,24.9253696],[67.0187557,24.9248092],[67.0187786,24.9239789],[67.0188473,24.9233355],[67.0185497,24.9228373],[67.0179318,24.9221108],[67.0179547,24.9215296],[67.0180233,24.9202842],[67.0182064,24.9177933],[67.0184353,24.914991],[67.018504,24.9137455],[67.0184124,24.9123962],[67.0182064,24.9115036],[67.0179318,24.9105902],[67.0179318,24.9099675],[67.0189388,24.9078708],[67.0201061,24.9066875],[67.0213421,24.9054627],[67.0215939,24.9031376],[67.0213879,24.9021826],[67.0213421,24.8988817],[67.0210446,24.8968264],[67.0210446,24.8957468],[67.0220516,24.8947087],[67.0234936,24.8926326],[67.0246609,24.8913246],[67.0261257,24.8905979],[67.0264004,24.8891238],[67.0264004,24.8885216],[67.0283502,24.8893903],[67.0319665,24.8902208],[67.0330194,24.8903453],[67.0342554,24.8911551],[67.0365442,24.8925876],[67.0377344,24.8932312],[67.0390848,24.8934389],[67.0400461,24.8933558],[67.0414651,24.893169],[67.0428155,24.893169],[67.043593,24.893232],[67.0440973,24.8932728],[67.0464319,24.8942486],[67.0501398,24.8960756],[67.0519479,24.8969268],[67.0542367,24.8976742],[67.058082,24.8985669],[67.0599817,24.8993558],[67.060737,24.8998333],[67.0616983,24.9010374],[67.062774,24.9034041],[67.0629668,24.903885],[67.0639642,24.9063727],[67.0648569,24.9081995],[67.0661386,24.9097565],[67.068725,24.9112511],[67.0730508,24.912289],[67.076095,24.9130156],[67.0776742,24.9140535],[67.0786584,24.9157142],[67.079162,24.9176446],[67.0794824,24.9199487],[67.0803064,24.9235812],[67.0807642,24.9248681],[67.0814279,24.9257191],[67.0835794,24.9269229],[67.0869211,24.9284796],[67.0887064,24.9295589],[67.0896219,24.9310741],[67.0902399,24.9329213],[67.0905374,24.9346232],[67.0905145,24.9373005],[67.0903088,24.9384199],[67.090217,24.9389194],[67.0894617,24.9412853],[67.0875619,24.9450209],[67.0871075,24.9456901],[67.0889847,24.9472254],[67.0910837,24.94895],[67.0933393,24.9506156],[67.0897081,24.9544246],[67.0876754,24.9563687],[67.0866487,24.9576018],[67.0860982,24.957993],[67.0856955,24.9579855],[67.0852273,24.9579908],[67.0854562,24.9594434],[67.0864175,24.9604809],[67.0882715,24.9624937],[67.0889585,24.9633883],[67.0895303,24.9641329],[67.0905374,24.9654402],[67.0905603,24.9674736],[67.0914758,24.9692165],[67.0914987,24.9701917],[67.0910638,24.9715404],[67.0905374,24.9727438],[67.0903772,24.9735737],[67.0904001,24.9752128],[67.0907434,24.9769141],[67.0908807,24.9778893],[67.0909952,24.9786984],[67.0911554,24.9794453],[67.0918649,24.980213],[67.0925516,24.9807316],[67.0929407,24.981437],[67.0928949,24.9821839],[67.09246,24.9827856],[67.0912241,24.9837607],[67.0907663,24.9847772],[67.0906061,24.986271],[67.0909265,24.9884908],[67.0913385,24.9906068],[67.093078,24.992142],[67.0933527,24.9933244],[67.0933069,24.9946106],[67.0925516,24.9969755],[67.0917276,24.9988839],[67.0913156,25.000419],[67.0911096,25.0022029],[67.0919107,25.0044224],[67.0919107,25.0059989],[67.0915674,25.0068701],[67.091536,25.0080163],[67.0889384,25.0076206],[67.0809504,25.0073924],[67.064316,25.006396],[67.0547259,25.0059189],[67.0504687,25.0056285],[67.046038,25.004005],[67.0430529,25.0029112],[67.0407412,25.0021437],[67.0404436,25.0012309],[67.045891,25.0003805],[67.0476992,25.0000693],[67.0503313,24.9987832],[67.0512697,24.9972066],[67.051636,24.9949662],[67.0518648,24.9932029],[67.0503313,24.9912114],[67.0494387,24.9890124],[67.0483172,24.9865436],[67.0457253,24.9837383],[67.0453591,24.9820579],[67.0463188,24.9809532],[67.046801,24.9803981],[67.0469383,24.9792155],[67.0467323,24.9773068],[67.0454048,24.9736759],[67.0444893,24.9718915],[67.0441231,24.9703561],[67.044146,24.9665798],[67.0434593,24.9640484],[67.0435738,24.9614546],[67.0432533,24.9605208],[67.0426125,24.9591306],[67.0421291,24.9582387]]]}},{"type":"Feature","id":"east","properties":{"id":"east","name":"East","osmName":"Gulshan District","familiar":"Karachi East","color":"#6FC5B5","label":[67.105,24.933],"osmRelation":16350242,"source":"OpenStreetMap contributors","snapshot":"2026-08-13"},"geometry":{"type":"Polygon","coordinates":[[[67.0889585,24.9633883],[67.0882715,24.9624937],[67.0864175,24.9604809],[67.0854562,24.9594434],[67.0852273,24.9579908],[67.0856955,24.9579855],[67.0860982,24.957993],[67.0866487,24.9576018],[67.0876754,24.9563687],[67.0897081,24.9544246],[67.0933393,24.9506156],[67.0910837,24.94895],[67.0889847,24.9472254],[67.0871075,24.9456901],[67.0875619,24.9450209],[67.0894617,24.9412853],[67.090217,24.9389194],[67.0903088,24.9384199],[67.0905145,24.9373005],[67.0905374,24.9346232],[67.0902399,24.9329213],[67.0896219,24.9310741],[67.0887064,24.9295589],[67.0869211,24.9284796],[67.0835794,24.9269229],[67.0814279,24.9257191],[67.0807642,24.9248681],[67.0803064,24.9235812],[67.0794824,24.9199487],[67.079162,24.9176446],[67.0786584,24.9157142],[67.0776742,24.9140535],[67.076095,24.9130156],[67.0730508,24.912289],[67.068725,24.9112511],[67.0661386,24.9097565],[67.0648569,24.9081995],[67.0639642,24.9063727],[67.0629668,24.903885],[67.062774,24.9034041],[67.0616983,24.9010374],[67.060737,24.8998333],[67.0599817,24.8993558],[67.058082,24.8985669],[67.0542367,24.8976742],[67.0519479,24.8969268],[67.0501398,24.8960756],[67.0464319,24.8942486],[67.0440973,24.8932728],[67.043593,24.893232],[67.0428155,24.893169],[67.0414651,24.893169],[67.0400461,24.8933558],[67.0390848,24.8934389],[67.0377344,24.8932312],[67.0365442,24.8925876],[67.0342554,24.8911551],[67.0330194,24.8903453],[67.0319665,24.8902208],[67.0283502,24.8893903],[67.0264004,24.8885216],[67.0239514,24.8860924],[67.0214781,24.8838117],[67.0227957,24.8815018],[67.0235324,24.8798872],[67.0208933,24.8756601],[67.0224453,24.8736751],[67.0258484,24.874871],[67.0268851,24.8727224],[67.0278245,24.8731167],[67.0289738,24.8733065],[67.0290733,24.8737146],[67.0290108,24.8738042],[67.0307124,24.8748718],[67.0311471,24.8743018],[67.0319442,24.8736203],[67.0308282,24.8727875],[67.0311685,24.8723551],[67.0347646,24.8693875],[67.0376193,24.8647235],[67.0393594,24.8601403],[67.0409616,24.8604311],[67.0478281,24.8564229],[67.0509637,24.8575236],[67.0512613,24.8566098],[67.0539621,24.8502962],[67.0589517,24.8529131],[67.0601877,24.8507531],[67.0667108,24.8528923],[67.0714944,24.8547407],[67.0774454,24.8572952],[67.0749734,24.8614071],[67.0837854,24.8663081],[67.089187,24.8595796],[67.0899652,24.8580428],[67.0990976,24.863463],[67.1019357,24.8623832],[67.1072458,24.86284],[67.1116861,24.8634007],[67.1114114,24.8644183],[67.1117319,24.8651036],[67.1125787,24.8656851],[67.1130365,24.8664949],[67.1135424,24.8679232],[67.1141604,24.8686708],[67.1160143,24.8701867],[67.1183718,24.8715572],[67.1238879,24.8734676],[67.12549,24.8744851],[67.1313494,24.8761463],[67.1309374,24.8796139],[67.1310061,24.8803822],[67.1316698,24.881545],[67.1324709,24.8831853],[67.1356982,24.8850125],[67.1361559,24.8872133],[67.1447333,24.8870735],[67.1501635,24.8869849],[67.1603716,24.8869642],[67.1637362,24.8870057],[67.165819,24.8863205],[67.1685427,24.8855315],[67.1750665,24.8844728],[67.1796307,24.8976361],[67.1830182,24.9070405],[67.1848707,24.9122455],[67.1850517,24.912994],[67.1768227,24.9345829],[67.1812984,24.9454829],[67.185048,24.9577362],[67.1864679,24.9643786],[67.1888415,24.9687665],[67.1720784,24.9728875],[67.1697109,24.9731604],[67.1621218,24.9691311],[67.1592811,24.9671655],[67.1419796,24.9759999],[67.1359882,24.984171],[67.1324565,24.9869185],[67.1363025,24.9914326],[67.1241497,25.0017353],[67.1187421,25.0116653],[67.1155968,25.0110027],[67.1147297,25.0096957],[67.1133143,25.0094044],[67.0916621,25.0080355],[67.091536,25.0080163],[67.0915674,25.0068701],[67.0919107,25.0059989],[67.0919107,25.0044224],[67.0911096,25.0022029],[67.0913156,25.000419],[67.0917276,24.9988839],[67.0925516,24.9969755],[67.0933069,24.9946106],[67.0933527,24.9933244],[67.093078,24.992142],[67.0913385,24.9906068],[67.0909265,24.9884908],[67.0906061,24.986271],[67.0907663,24.9847772],[67.0912241,24.9837607],[67.09246,24.9827856],[67.0928949,24.9821839],[67.0929407,24.981437],[67.0925516,24.9807316],[67.0918649,24.980213],[67.0911554,24.9794453],[67.0909952,24.9786984],[67.0908807,24.9778893],[67.0907434,24.9769141],[67.0904001,24.9752128],[67.0903772,24.9735737],[67.0905374,24.9727438],[67.0910638,24.9715404],[67.0914987,24.9701917],[67.0914758,24.9692165],[67.0905603,24.9674736],[67.0905374,24.9654402],[67.0895303,24.9641329],[67.0889585,24.9633883]]]}},{"type":"Feature","id":"korangi","properties":{"id":"korangi","name":"Korangi","osmName":"Korangi District","familiar":"Korangi","color":"#A88CC8","label":[67.135,24.847],"osmRelation":16350632,"source":"OpenStreetMap contributors","snapshot":"2026-08-13"},"geometry":{"type":"Polygon","coordinates":[[[67.1126892,24.7581769],[67.1219924,24.7646006],[67.1362975,24.771355],[67.1442382,24.7750181],[67.1403799,24.7805706],[67.138091,24.7824201],[67.1366491,24.7850383],[67.1349783,24.7863059],[67.1364889,24.7931007],[67.1359624,24.7966122],[67.1413183,24.7975264],[67.1430349,24.7982537],[67.1458044,24.7989393],[67.1517553,24.7995834],[67.1526022,24.8002483],[67.1544332,24.8012872],[67.1598091,24.8032511],[67.1665611,24.8049548],[67.1696739,24.8060767],[67.1694679,24.8083621],[67.168827,24.8105436],[67.1732444,24.8114369],[67.1738624,24.8122264],[67.1726264,24.8173578],[67.1720314,24.8201],[67.175785,24.820744],[67.1783714,24.8199753],[67.1810264,24.8182719],[67.1838417,24.8151141],[67.185009,24.8151349],[67.1859474,24.8159867],[67.1866111,24.8161113],[67.1876411,24.815405],[67.1897926,24.8163191],[67.1922416,24.817711],[67.1936149,24.818355],[67.193798,24.8238808],[67.1957206,24.8288871],[67.1988105,24.8295726],[67.2033882,24.8279939],[67.2059059,24.8275992],[67.2082836,24.8275969],[67.2100231,24.8277008],[67.2112819,24.8285317],[67.2115566,24.830235],[67.2153332,24.8313359],[67.2151729,24.8320214],[67.2157223,24.8332054],[67.2168438,24.8375466],[67.2183773,24.837879],[67.2196132,24.8436116],[67.2144692,24.845054],[67.2120431,24.8475464],[67.2100976,24.8488756],[67.2073968,24.8502879],[67.2027276,24.8545662],[67.2004846,24.85656],[67.1987908,24.8594467],[67.1971429,24.8617311],[67.2008737,24.8634132],[67.2048562,24.86441],[67.2038804,24.8660664],[67.2037484,24.8662905],[67.2034371,24.8668189],[67.2023614,24.8679818],[67.1998208,24.8701414],[67.1919015,24.8766617],[67.1888459,24.878389],[67.1858153,24.8802652],[67.1821295,24.8822901],[67.1791398,24.8834046],[67.1750665,24.8844728],[67.1685427,24.8855315],[67.165819,24.8863205],[67.1637362,24.8870057],[67.1603716,24.8869642],[67.1501635,24.8869849],[67.1447333,24.8870735],[67.1361559,24.8872133],[67.1356982,24.8850125],[67.1324709,24.8831853],[67.1316698,24.881545],[67.1310061,24.8803822],[67.1309374,24.8796139],[67.1313494,24.8761463],[67.12549,24.8744851],[67.1238879,24.8734676],[67.1183718,24.8715572],[67.1160143,24.8701867],[67.1141604,24.8686708],[67.1135424,24.8679232],[67.1130365,24.8664949],[67.1125787,24.8656851],[67.1117319,24.8651036],[67.1114114,24.8644183],[67.1116861,24.8634007],[67.1072458,24.86284],[67.1019357,24.8623832],[67.0990976,24.863463],[67.0899652,24.8580428],[67.0918944,24.8542256],[67.0928099,24.8524187],[67.0944578,24.8512349],[67.0930617,24.8475795],[67.0923064,24.8458141],[67.0894224,24.8424909],[67.0867674,24.8388145],[67.0867903,24.8370282],[67.0888273,24.8337256],[67.0784361,24.8316484],[67.0739042,24.8312537],[67.0777266,24.8028757],[67.0780928,24.8022316],[67.0790312,24.8008603],[67.0798323,24.799115],[67.0812056,24.7947517],[67.0821211,24.7934011],[67.0899717,24.7869388],[67.0912443,24.7858123],[67.0959456,24.7810996],[67.0996992,24.7775877],[67.1079513,24.7701273],[67.1095993,24.7619596],[67.1126892,24.7581769]]]}},{"type":"Feature","id":"south","properties":{"id":"south","name":"South","osmName":"Karachi District","familiar":"Karachi South","color":"#F06F55","label":[67.032,24.862],"osmRelation":16350836,"source":"OpenStreetMap contributors","snapshot":"2026-08-13"},"geometry":{"type":"Polygon","coordinates":[[[67.0899652,24.8580428],[67.089187,24.8595796],[67.0837854,24.8663081],[67.0749734,24.8614071],[67.0774454,24.8572952],[67.0714944,24.8547407],[67.0667108,24.8528923],[67.0601877,24.8507531],[67.0589517,24.8529131],[67.0539621,24.8502962],[67.0512613,24.8566098],[67.0509637,24.8575236],[67.0478281,24.8564229],[67.0409616,24.8604311],[67.0393594,24.8601403],[67.0376193,24.8647235],[67.0347646,24.8693875],[67.0311685,24.8723551],[67.0308282,24.8727875],[67.0319442,24.8736203],[67.0311471,24.8743018],[67.0307124,24.8748718],[67.0290108,24.8738042],[67.0290733,24.8737146],[67.0289738,24.8733065],[67.0278245,24.8731167],[67.0268851,24.8727224],[67.0258484,24.874871],[67.0224453,24.8736751],[67.0208933,24.8756601],[67.0235324,24.8798872],[67.0227957,24.8815018],[67.0214781,24.8838117],[67.0211819,24.8835385],[67.0189617,24.8815868],[67.0165127,24.879718],[67.0146816,24.8789705],[67.0104244,24.8792405],[67.0087994,24.8797388],[67.0065563,24.8809223],[67.0047253,24.8813168],[67.0021618,24.8813376],[66.995776,24.8809016],[66.9933956,24.8802787],[66.9848355,24.8762919],[66.9822033,24.8749214],[66.9778937,24.8730239],[66.9755969,24.8715216],[66.9802916,24.86837],[66.9852354,24.8650266],[66.9862654,24.8639676],[66.9869978,24.8624516],[66.987158,24.8610187],[66.9870599,24.8585018],[66.9869978,24.8568859],[66.9881422,24.8542484],[66.9880049,24.8533969],[66.987982,24.8520677],[66.9884626,24.8503647],[66.9920332,24.8457746],[66.9928114,24.8453592],[66.9949171,24.8455254],[66.9964964,24.8455462],[67.0003416,24.84484],[67.0061094,24.8436769],[67.0132277,24.8354517],[67.0185377,24.8300094],[67.01967,24.8286989],[67.019052,24.8270578],[67.017507,24.8232317],[67.0165229,24.82238],[67.0099768,24.8196794],[67.0072074,24.8186199],[67.0041632,24.8190769],[66.9957404,24.8201987],[66.9940695,24.8195755],[66.9930167,24.8186407],[66.9926734,24.8173734],[66.9918494,24.8110163],[66.9924674,24.8041186],[66.9961981,24.79587],[66.995214,24.7919636],[66.9873946,24.7875852],[66.9943732,24.778361],[67.020598,24.7766633],[67.0313326,24.7766841],[67.0586153,24.7404362],[67.0703583,24.7235113],[67.0860122,24.7367063],[67.0931075,24.7460813],[67.108969,24.7557674],[67.1126892,24.7581769],[67.1095993,24.7619596],[67.1079513,24.7701273],[67.0996992,24.7775877],[67.0959456,24.7810996],[67.0912443,24.7858123],[67.0899717,24.7869388],[67.0821211,24.7934011],[67.0812056,24.7947517],[67.0798323,24.799115],[67.0790312,24.8008603],[67.0780928,24.8022316],[67.0777266,24.8028757],[67.0739042,24.8312537],[67.0784361,24.8316484],[67.0888273,24.8337256],[67.0867903,24.8370282],[67.0867674,24.8388145],[67.0894224,24.8424909],[67.0923064,24.8458141],[67.0930617,24.8475795],[67.0944578,24.8512349],[67.0928099,24.8524187],[67.0918944,24.8542256],[67.0899652,24.8580428]]]}},{"type":"Feature","id":"keamari","properties":{"id":"keamari","name":"Keamari","osmName":"Keamari District","familiar":"Keamari","color":"#4AA5B3","label":[66.91,24.888],"osmRelation":16351022,"source":"OpenStreetMap contributors","snapshot":"2026-08-13"},"geometry":{"type":"Polygon","coordinates":[[[67.01967,24.8286989],[67.0185377,24.8300094],[67.0132277,24.8354517],[67.0061094,24.8436769],[67.0003416,24.84484],[66.9964964,24.8455462],[66.9949171,24.8455254],[66.9928114,24.8453592],[66.9920332,24.8457746],[66.9884626,24.8503647],[66.987982,24.8520677],[66.9880049,24.8533969],[66.9881422,24.8542484],[66.9869978,24.8568859],[66.9870599,24.8585018],[66.987158,24.8610187],[66.9869978,24.8624516],[66.9862654,24.8639676],[66.9852354,24.8650266],[66.9802916,24.86837],[66.9755969,24.8715216],[66.9778937,24.8730239],[66.9822033,24.8749214],[66.9848355,24.8762919],[66.9933956,24.8802787],[66.995776,24.8809016],[67.0021618,24.8813376],[67.0047253,24.8813168],[67.0065563,24.8809223],[67.0087994,24.8797388],[67.0104244,24.8792405],[67.0146816,24.8789705],[67.0165127,24.879718],[67.0189617,24.8815868],[67.0211819,24.8835385],[67.0214781,24.8838117],[67.0239514,24.8860924],[67.0264004,24.8885216],[67.0264004,24.8891238],[67.0261257,24.8905979],[67.0246609,24.8913246],[67.0234936,24.8926326],[67.0220516,24.8947087],[67.0210446,24.8957468],[67.0210446,24.8968264],[67.0213421,24.8988817],[67.0213879,24.9021826],[67.0215939,24.9031376],[67.0213421,24.9054627],[67.0201061,24.9066875],[67.0189388,24.9078708],[67.0179318,24.9099675],[67.0179318,24.9105902],[67.0182064,24.9115036],[67.0184124,24.9123962],[67.018504,24.9137455],[67.0184353,24.914991],[67.0182064,24.9177933],[67.0180233,24.9202842],[67.0179547,24.9215296],[67.0179318,24.9221108],[67.0185497,24.9228373],[67.0188473,24.9233355],[67.0187786,24.9239789],[67.0187557,24.9248092],[67.0188015,24.9253696],[67.0190533,24.9255564],[67.0193737,24.9258055],[67.019717,24.9260961],[67.0198086,24.9264282],[67.0201061,24.9268848],[67.0204952,24.9272169],[67.0203808,24.9279434],[67.0196255,24.9284415],[67.0184124,24.9302057],[67.0177788,24.9310933],[67.0154213,24.9310517],[67.0141167,24.9312178],[67.0135903,24.9321725],[67.014872,24.9324631],[67.0163597,24.9326914],[67.0176872,24.933148],[67.0191063,24.9340405],[67.0258583,24.9389385],[67.0280785,24.9405573],[67.031448,24.9440268],[67.0321297,24.9447288],[67.0393395,24.953092],[67.0408707,24.9559171],[67.0384553,24.9578422],[67.0343583,24.9607058],[67.0308564,24.9574687],[67.0283158,24.9553313],[67.0263932,24.9528411],[67.0243562,24.9497283],[67.0232346,24.9483172],[67.0221131,24.946906],[67.0206025,24.9443119],[67.0203278,24.9436685],[67.0192521,24.943378],[67.0179704,24.9428384],[67.0169404,24.9418215],[67.0157502,24.9408876],[67.0146287,24.9401612],[67.014148,24.9396008],[67.0122483,24.9371726],[67.0104173,24.9361764],[67.0098644,24.9359429],[67.0087464,24.9354707],[67.0072816,24.9342877],[67.0057023,24.9330839],[67.0046494,24.932399],[67.003093,24.931299],[67.0025215,24.9305765],[67.0023377,24.9303442],[67.0003007,24.9281856],[66.9972794,24.9257157],[66.996341,24.9242212],[66.9942124,24.9201944],[66.9928849,24.9208586],[66.9929536,24.9196755],[66.992862,24.9190735],[66.9928849,24.9174752],[66.9919923,24.913116],[66.9822005,24.9159038],[66.9822692,24.9163813],[66.9811705,24.9174399],[66.9807357,24.918291],[66.9812163,24.9196402],[66.9805526,24.9206158],[66.9786757,24.922048],[66.977806,24.9231274],[66.9768447,24.9234802],[66.973709,24.9236463],[66.9724044,24.9240199],[66.9714202,24.9254729],[66.9736632,24.9275692],[66.9754485,24.9285863],[66.9760436,24.9292712],[66.9758605,24.9301844],[66.9760894,24.9307656],[66.9772795,24.931326],[66.979225,24.9321562],[66.9799346,24.9327996],[66.9784468,24.9350411],[66.9775542,24.9359128],[66.9759749,24.9376562],[66.9752196,24.937926],[66.9732283,24.9386524],[66.9737319,24.9396901],[66.9734343,24.9400429],[66.9713286,24.9412466],[66.969818,24.9411429],[66.968994,24.9413089],[66.9678038,24.9415164],[66.9659499,24.9414127],[66.9640731,24.9415579],[66.9616469,24.9413089],[66.9598616,24.9412674],[66.9586028,24.9412881],[66.955902,24.9403335],[66.9534758,24.9394203],[66.9500197,24.9391297],[66.9478224,24.9397524],[66.9461745,24.9423051],[66.9468383,24.9428654],[66.9468383,24.9435295],[66.9423874,24.9515386],[66.9472432,24.9537505],[66.9493833,24.9547635],[66.9595685,24.9594739],[66.9557919,24.9654707],[66.9512601,24.9711352],[66.9580808,24.9748284],[66.9651532,24.9788949],[66.9695477,24.9807829],[66.9694104,24.9815713],[66.9681058,24.9833348],[66.9659085,24.986343],[66.9631848,24.9904921],[66.9613538,24.9936869],[66.9566617,25.002109],[66.9553342,25.0043492],[66.9522901,25.0082696],[66.9477124,25.0144299],[66.9400634,25.0242241],[66.9311723,25.0174003],[66.907488,25.0160707],[66.8957354,25.0158104],[66.8837433,25.0155754],[66.8735777,25.0139514],[66.8630941,25.0096191],[66.8487476,25.0040409],[66.8334605,24.9912596],[66.8226858,24.9753594],[66.7959454,24.9743781],[66.7864203,24.9704352],[66.7761882,24.9660492],[66.7717594,24.9556775],[66.7593159,24.9430098],[66.7502557,24.9358127],[66.7385417,24.9286822],[66.7352121,24.9270089],[66.726406,24.9225832],[66.7226711,24.9190036],[66.7209359,24.9173322],[66.7188273,24.9117952],[66.7170415,24.9070572],[66.7111996,24.9004467],[66.6960467,24.8868613],[66.6959395,24.8850645],[66.6949039,24.8832984],[66.6929432,24.8820332],[66.6900021,24.8816324],[66.6877231,24.8823653],[66.6849336,24.8849153],[66.6795263,24.8832413],[66.6666644,24.8797642],[66.6507276,24.8773359],[66.6241535,24.8740456],[66.6047343,24.8728191],[66.589624,24.8718241],[66.5705059,24.8713031],[66.5505542,24.8713872],[66.5333442,24.8713704],[66.5136889,24.8716897],[66.4954045,24.8716729],[66.4787318,24.871925],[66.4619109,24.8724964],[66.4459977,24.8725132],[66.4303253,24.8724964],[66.4164382,24.8722536],[66.2862312,24.7347573],[66.2947507,24.731987],[66.3032702,24.7292167],[66.3117897,24.7264464],[66.3203092,24.7236761],[66.3288287,24.7209058],[66.3373482,24.7181355],[66.3458677,24.7153652],[66.3543872,24.7125949],[66.3629067,24.7098246],[66.3714262,24.7070543],[66.3799457,24.704284],[66.3884652,24.7015137],[66.3969846,24.6987434],[66.4055041,24.6959731],[66.4140236,24.6932028],[66.4225431,24.6904325],[66.4310626,24.6876622],[66.4395821,24.6848919],[66.4481016,24.6821216],[66.4566211,24.6793513],[66.4651406,24.676581],[66.4736601,24.6738107],[66.4821796,24.6710404],[66.4906991,24.6682701],[66.4992185,24.6654998],[66.507738,24.6627295],[66.5162575,24.6599592],[66.524777,24.6571889],[66.5310517,24.6550147],[66.5368341,24.648027],[66.5425408,24.6411309],[66.5482474,24.6342347],[66.553954,24.6273386],[66.5596606,24.6204425],[66.5653672,24.6135464],[66.5710738,24.6066503],[66.5767804,24.5997541],[66.582487,24.592858],[66.5881936,24.5859619],[66.5939002,24.5790658],[66.5996068,24.5721697],[66.6053134,24.5652736],[66.6110199,24.5583775],[66.6167265,24.5514814],[66.622433,24.5445853],[66.6281396,24.5376891],[66.6338462,24.5307931],[66.6395527,24.523897],[66.6452592,24.5170008],[66.6509658,24.5101047],[66.6566723,24.5032087],[66.6623788,24.4963126],[66.6680854,24.4894165],[66.6737919,24.4825204],[66.6794984,24.4756243],[66.6852049,24.4687282],[66.6909114,24.4618321],[66.6966179,24.454936],[66.7023244,24.4480399],[66.7080309,24.4411438],[66.7137373,24.4342478],[66.7194438,24.4273517],[66.9227978,24.5990607],[67.0703583,24.7235113],[67.0586153,24.7404362],[67.0313326,24.7766841],[67.020598,24.7766633],[66.9943732,24.778361],[66.9873946,24.7875852],[66.995214,24.7919636],[66.9961981,24.79587],[66.9924674,24.8041186],[66.9918494,24.8110163],[66.9926734,24.8173734],[66.9930167,24.8186407],[66.9940695,24.8195755],[66.9957404,24.8201987],[67.0041632,24.8190769],[67.0072074,24.8186199],[67.0099768,24.8196794],[67.0165229,24.82238],[67.017507,24.8232317],[67.019052,24.8270578],[67.01967,24.8286989]]]}},{"type":"Feature","id":"malir","properties":{"id":"malir","name":"Malir","osmName":"Malir District","familiar":"Malir","color":"#94B76A","label":[67.325,25.042],"osmRelation":16351916,"source":"OpenStreetMap contributors","snapshot":"2026-08-13"},"geometry":{"type":"Polygon","coordinates":[[[67.4397799,24.7917702],[67.4394771,24.7930161],[67.4397059,24.7941589],[67.4409877,24.796673],[67.440507,24.8001221],[67.440507,24.8020752],[67.4411937,24.8042152],[67.4396144,24.8082874],[67.4394084,24.8106973],[67.4371653,24.8142707],[67.4361583,24.8165144],[67.4364329,24.818114],[67.4369136,24.8201914],[67.4363871,24.8230167],[67.4356318,24.8247201],[67.4365016,24.8267974],[67.4383784,24.8296017],[67.4388591,24.832032],[67.4395457,24.8328006],[67.440095,24.8338184],[67.440713,24.8350855],[67.440095,24.8357502],[67.4392253,24.8364772],[67.4390651,24.8369757],[67.4390193,24.8376611],[67.4392024,24.838575],[67.4394084,24.8398836],[67.4379435,24.842023],[67.4372111,24.8422307],[67.4362727,24.8425422],[67.4360667,24.8436638],[67.4362727,24.8453046],[67.4628001,24.84545],[67.4676524,24.8448685],[67.4732668,24.8435376],[67.4764941,24.8422707],[67.483681,24.8385735],[67.4880755,24.8342323],[67.4910967,24.8297871],[67.4936373,24.8242823],[67.4969332,24.8180086],[67.4986041,24.8152456],[67.5032961,24.8112775],[67.5123599,24.8048577],[67.5162737,24.8025723],[67.5185854,24.8013464],[67.5216296,24.8003907],[67.528702,24.7982714],[67.5377429,24.7957157],[67.5440142,24.794095],[67.5503542,24.7922249],[67.554291,24.791186],[67.5611804,24.7889003],[67.5646594,24.7881522],[67.569649,24.7872587],[67.5738261,24.7869094],[67.5808756,24.7872394],[67.5827753,24.7878029],[67.5818598,24.7940366],[67.5805401,24.7969429],[67.5614893,24.838889],[67.5427668,24.8778905],[67.5356514,24.8938769],[67.5335228,24.8986312],[67.5237953,24.9206565],[67.5213463,24.9400006],[67.5205326,24.984229],[67.5197212,25.0283181],[67.5179131,25.042088],[67.5164253,25.0487857],[67.5137968,25.0535865],[67.5113248,25.0554941],[67.5085782,25.0598275],[67.5046186,25.0624813],[67.5034742,25.0644095],[67.502696,25.0676645],[67.501872,25.0698621],[67.4997892,25.0723085],[67.4971799,25.0735938],[67.4953489,25.076123],[67.4946851,25.0778022],[67.4943418,25.0795228],[67.4918241,25.0822385],[67.4434614,25.1335548],[67.433505,25.1393565],[67.4312151,25.1403766],[67.3912981,25.1477845],[67.3730791,25.1537306],[67.3625734,25.1563825],[67.3452929,25.1616652],[67.3377626,25.164234],[67.3297747,25.1654356],[67.3281725,25.1662642],[67.3263414,25.16759],[67.323984,25.1681907],[67.3202532,25.1718573],[67.3190172,25.1725616],[67.3189714,25.1743844],[67.317827,25.1754823],[67.3158358,25.1770358],[67.3136843,25.1783408],[67.3124941,25.1784651],[67.3105028,25.1781544],[67.3088549,25.1784236],[67.3059481,25.1823177],[67.3047808,25.1835605],[67.3031328,25.1837676],[67.3011415,25.1837676],[67.3005922,25.1847204],[67.3001116,25.1888007],[67.3001116,25.1900434],[67.3022173,25.1913482],[67.3035906,25.1926323],[67.3023775,25.1936885],[67.2995851,25.1951176],[67.2994478,25.1968987],[67.3014391,25.1980378],[67.3029268,25.1983277],[67.3052614,25.1991768],[67.305971,25.2012685],[67.3090838,25.2052447],[67.3134554,25.2114779],[67.3139589,25.2139007],[67.3138903,25.2175038],[67.3178499,25.2239227],[67.3211001,25.2281673],[67.3221529,25.229948],[67.3212145,25.2329294],[67.3212145,25.2345236],[67.3222673,25.2368217],[67.3211,25.2382296],[67.3212374,25.2417284],[67.3214663,25.2457861],[67.3201387,25.2480012],[67.3213289,25.2517274],[67.3264788,25.254936],[67.3334368,25.2565507],[67.3338945,25.2587449],[67.3350161,25.2630711],[67.3364809,25.2677904],[67.3384264,25.2726544],[67.341379,25.2764626],[67.3427523,25.2782426],[67.3464602,25.2828578],[67.3487947,25.2864174],[67.3493212,25.2916532],[67.350374,25.2957092],[67.3533037,25.2985441],[67.354265,25.3003858],[67.3576982,25.3015239],[67.3596209,25.3031793],[67.3628939,25.3075039],[67.3657549,25.312656],[67.3674715,25.3165871],[67.3688906,25.3208699],[67.3698061,25.3223802],[67.3704012,25.3257111],[67.3713625,25.3282144],[67.3722094,25.3295177],[67.374544,25.3310693],[67.3760775,25.3321036],[67.3760546,25.3340275],[67.3768328,25.3355584],[67.3781145,25.3369857],[67.3792029,25.3392034],[67.3788825,25.3408789],[67.3809195,25.3443334],[67.3826819,25.3491323],[67.3825675,25.3518626],[67.3829108,25.3601566],[67.3837577,25.3614182],[67.3838492,25.3635485],[67.3841468,25.3674987],[67.3839637,25.3705388],[67.3839637,25.3762672],[67.3860047,25.3811205],[67.3873551,25.3827334],[67.3911317,25.3857525],[67.3909715,25.3875721],[67.3914979,25.3888335],[67.3932832,25.3905704],[67.3932832,25.3928862],[67.3950227,25.3953468],[67.3964875,25.3969802],[67.3985703,25.4013428],[67.3985474,25.4041133],[67.3988679,25.4072972],[67.4005845,25.4102329],[67.4007218,25.4121142],[67.4013398,25.4146364],[67.4023469,25.4158354],[67.4031709,25.4169931],[67.4029877,25.4184402],[67.4036973,25.4192878],[67.4048646,25.420032],[67.4080689,25.420156],[67.4089158,25.4227193],[67.4085725,25.4239596],[67.4075654,25.4263575],[67.4074509,25.4277218],[67.4079774,25.4293962],[67.4086411,25.4306777],[67.4077027,25.434109],[67.4071076,25.4352045],[67.4069016,25.4360933],[67.407039,25.4373954],[67.4069245,25.439235],[67.4065354,25.4406818],[67.4075425,25.4423146],[67.4101289,25.442852],[67.4184144,25.4457455],[67.4207948,25.4481637],[67.4221909,25.4521937],[67.4220078,25.4574223],[67.4230378,25.466143],[67.4228318,25.4750283],[67.4228318,25.4804832],[67.4219621,25.4845948],[67.4214356,25.4875494],[67.4185975,25.493107],[67.4150498,25.4988915],[67.4127839,25.5032711],[67.410106,25.5088073],[67.4092362,25.5127527],[67.409282,25.5187429],[67.4091447,25.5239273],[67.4075883,25.5272526],[67.4071076,25.5336965],[67.4068559,25.5357204],[67.4069016,25.5398921],[67.4064896,25.5433202],[67.4071534,25.5452821],[67.4065812,25.5507544],[67.4065125,25.5530052],[67.4064668,25.5579403],[67.406215,25.5622558],[67.4063981,25.56558],[67.4052995,25.569441],[67.4047273,25.5716295],[67.4052995,25.574458],[67.4057801,25.5769148],[67.4052766,25.5791652],[67.4048646,25.5821586],[67.4046586,25.5831909],[67.404361,25.5847392],[67.4039033,25.5870513],[67.404155,25.5895697],[67.4038117,25.5905193],[67.4033082,25.5964024],[67.4037502,25.6012975],[67.4041486,25.6033616],[67.4041486,25.6052606],[67.4041028,25.6094505],[67.4039197,25.6115764],[67.4032559,25.6148992],[67.4021344,25.6169425],[67.4006467,25.622556],[67.3990216,25.6257341],[67.3970075,25.6289947],[67.3954968,25.6336377],[67.3941464,25.6361346],[67.3934827,25.6391886],[67.3923154,25.6414377],[67.3915143,25.6441614],[67.3914227,25.6472564],[67.3910108,25.6498561],[67.3878064,25.6552824],[67.3861356,25.6583565],[67.3835721,25.6595325],[67.382153,25.6606259],[67.3808484,25.6618225],[67.3797311,25.6622425],[67.34594,25.676796],[67.3362836,25.6350246],[67.336029,25.633923],[67.335175,25.630219],[67.323784,25.618265],[67.313568,25.610256],[67.306328,25.605064],[67.296822,25.599144],[67.291359,25.593979],[67.285446,25.586729],[67.282303,25.580446],[67.279182,25.573009],[67.27018,25.5574],[67.266014,25.5511],[67.251862,25.537951],[67.235603,25.527538],[67.227547,25.524641],[67.218048,25.518259],[67.209488,25.504965],[67.205307,25.489431],[67.202423,25.482922],[67.196098,25.47646],[67.1834255,25.4661273],[67.1789295,25.4463032],[67.1747482,25.4193908],[67.1811239,25.3942702],[67.1549968,25.3622129],[67.1667042,25.3432401],[67.1481412,25.3198909],[67.1367822,25.2994515],[67.1269827,25.2832888],[67.127053,25.2784013],[67.1216471,25.2642008],[67.1171895,25.2586922],[67.1074337,25.2481451],[67.0994945,25.2445913],[67.0866283,25.2387567],[67.0793926,25.2338897],[67.0646936,25.2223833],[67.0579762,25.221297],[67.0469192,25.2160886],[67.041944,25.2107237],[67.038941,25.2023216],[67.0362519,25.1923764],[67.0335351,25.1840694],[67.027786,25.173115],[67.023164,25.1655614],[67.0222088,25.1595958],[67.0201518,25.1505704],[67.019249,25.138809],[67.0184374,25.1330563],[67.0264792,25.1235062],[67.0271421,25.1176959],[67.0237897,25.1103347],[67.0175509,25.1045791],[67.0261114,25.0975928],[67.0349234,25.0929705],[67.0408743,25.0926389],[67.0484503,25.0933229],[67.051586,25.091333],[67.0545614,25.0892809],[67.0603521,25.0882444],[67.0650786,25.0883312],[67.0703657,25.0790444],[67.0753585,25.0674737],[67.0813323,25.0598855],[67.0852691,25.0554069],[67.0914947,25.0503062],[67.0933715,25.0486059],[67.0962325,25.0449356],[67.1013552,25.040331],[67.1035982,25.0386305],[67.1048113,25.0369923],[67.1076037,25.0347734],[67.1103159,25.0294397],[67.1151911,25.021455],[67.117663,25.0169129],[67.1183726,25.0150254],[67.1187421,25.0116653],[67.1241497,25.0017353],[67.1363025,24.9914326],[67.1324565,24.9869185],[67.1359882,24.984171],[67.1419796,24.9759999],[67.1592811,24.9671655],[67.1621218,24.9691311],[67.1697109,24.9731604],[67.1720784,24.9728875],[67.1888415,24.9687665],[67.1864679,24.9643786],[67.185048,24.9577362],[67.1812984,24.9454829],[67.1768227,24.9345829],[67.1850517,24.912994],[67.1848707,24.9122455],[67.1830182,24.9070405],[67.1796307,24.8976361],[67.1750665,24.8844728],[67.1791398,24.8834046],[67.1821295,24.8822901],[67.1858153,24.8802652],[67.1888459,24.878389],[67.1919015,24.8766617],[67.1998208,24.8701414],[67.2023614,24.8679818],[67.2034371,24.8668189],[67.2037484,24.8662905],[67.2038804,24.8660664],[67.2048562,24.86441],[67.2008737,24.8634132],[67.1971429,24.8617311],[67.1987908,24.8594467],[67.2004846,24.85656],[67.2027276,24.8545662],[67.2073968,24.8502879],[67.2100976,24.8488756],[67.2120431,24.8475464],[67.2144692,24.845054],[67.2196132,24.8436116],[67.2183773,24.837879],[67.2168438,24.8375466],[67.2157223,24.8332054],[67.2151729,24.8320214],[67.2153332,24.8313359],[67.2115566,24.830235],[67.2112819,24.8285317],[67.2100231,24.8277008],[67.2082836,24.8275969],[67.2059059,24.8275992],[67.2033882,24.8279939],[67.1988105,24.8295726],[67.1957206,24.8288871],[67.193798,24.8238808],[67.1936149,24.818355],[67.1922416,24.817711],[67.1897926,24.8163191],[67.1876411,24.815405],[67.1866111,24.8161113],[67.1859474,24.8159867],[67.185009,24.8151349],[67.1838417,24.8151141],[67.1810264,24.8182719],[67.1783714,24.8199753],[67.175785,24.820744],[67.1720314,24.8201],[67.1726264,24.8173578],[67.1738624,24.8122264],[67.1732444,24.8114369],[67.168827,24.8105436],[67.1694679,24.8083621],[67.1696739,24.8060767],[67.1665611,24.8049548],[67.1598091,24.8032511],[67.1544332,24.8012872],[67.1526022,24.8002483],[67.1517553,24.7995834],[67.1458044,24.7989393],[67.1430349,24.7982537],[67.1413183,24.7975264],[67.1359624,24.7966122],[67.1364889,24.7931007],[67.1349783,24.7863059],[67.1366491,24.7850383],[67.138091,24.7824201],[67.1403799,24.7805706],[67.1442382,24.7750181],[67.1504882,24.7779012],[67.1623214,24.7803742],[67.16976,24.7817041],[67.180815,24.7865251],[67.187848,24.787194],[67.1924028,24.7898122],[67.2024965,24.7959834],[67.2150392,24.795651],[67.2182664,24.794238],[67.2257738,24.789355],[67.2309694,24.786529],[67.2411588,24.7836046],[67.2450727,24.7839163],[67.2486433,24.7852047],[67.2615064,24.7901294],[67.2739805,24.7878853],[67.2870954,24.7822124],[67.300073,24.7747935],[67.3080152,24.7693902],[67.315431,24.7646933],[67.3201688,24.762802],[67.3266462,24.7621577],[67.3303312,24.7619291],[67.3359388,24.7625734],[67.343057,24.7680809],[67.3511823,24.7708865],[67.3557829,24.7711567],[67.3638395,24.7729232],[67.3683714,24.7766639],[67.375398,24.7776406],[67.3828825,24.7772873],[67.3871626,24.776747],[67.3976453,24.7776614],[67.4056104,24.7771211],[67.4127287,24.7714269],[67.4202818,24.7660442],[67.4247907,24.766065],[67.4298032,24.7707203],[67.4349302,24.7746065],[67.4445203,24.7757495],[67.4497617,24.7758118],[67.4496702,24.7799473],[67.4457105,24.7854748],[67.4431013,24.7868463],[67.4408582,24.7888411],[67.4397596,24.7905658],[67.4397799,24.7917702]]]}}]}
